store_number ,phone_no,street_address,is_showcasestore,cityname,state
1,(239) 167-4627,78 Fabien Freeway,1,Oakland,NH
2,(744) 032-1717,29 West Milton St.,1,New Orleans,IN
3,544-510-8934,271 Fabien Parkway,1,Lubbock,IL
4,340-264-5348,444 North Rocky Milton Avenue,1,Cleveland,CT
5,(111) 026-2512,97 Hague Blvd.,1,Tampa,NE
6,(648) 797-7659,60 West Fabien Avenue,1,Arlington,KS
7,(812) 897-8043,835 Cowley Street,1,Garland,IA
8,243-660-5913,35 West First St.,1,Tacoma,IL
9,(448) 170-3541,912 First Freeway,1,New York,VT
10,(670) 344-3433,33 Nobel Blvd.,1,Austin,AR
11,635-622-1428,430 Nobel Parkway,1,Albuquerque,WV
12,(185) 614-8708,11 Second Way,1,Washington,ME
13,036-923-0948,773 North Rocky Milton Parkway,1,Norfolk,FL
14,651-230-9877,677 West White First Blvd.,1,Greensboro,MO
15,(473) 203-7499,100 South First Boulevard,1,Cleveland,IL
16,750-420-5566,49 West Green New Boulevard,1,Arlington,WA
17,(489) 944-6657,126 West Rocky Hague Way,1,Louisville,ID
18,864-597-7021,54 White Hague Street,1,Des Moines,RI
19,171-872-5703,83 West New Way,1,Omaha,MS
20,932-314-1312,38 Milton Way,1,Hialeah,HI
21,099-520-5981,878 Rocky First Blvd.,1,Bakersfield,CA
22,172-213-7577,62 Green New Freeway,1,Lincoln,TX
23,674-918-8273,496 West Green Hague Freeway,1,Riverside,NC
24,(728) 557-1996,909 Rocky Clarendon Boulevard,1,Norfolk,FL
25,130-581-5115,83 Second Blvd.,1,Austin,AR
26,(894) 716-6512,48 Oak Freeway,1,Philadelphia,MO
27,(557) 324-2986,976 Green Fabien Blvd.,1,Phoenix,GA
28,(770) 535-4196,79 West New Boulevard,1,Indianapolis,MS
29,646-382-4827,45 Rocky Clarendon Road,1,Charlotte,NY
30,649-177-4171,20 New Drive,1,Madison,IA
31,054-388-3622,523 White Second Freeway,1,Grand Rapids,FL
32,218-315-1852,39 Cowley Blvd.,1,Virginia Beach,CO
33,945-080-4541,25 West First Street,1,Cleveland,CT
34,138-907-3986,38 Rocky Cowley Street,1,Nashville,UT
35,451-018-0019,742 South White New Way,1,Dallas,WI
36,722-569-0527,81 Hague Drive,1,New York,TX
37,153-904-3314,36 White Old Avenue,1,Shreveport,TX
38,(377) 335-7602,182 Cowley Road,1,Mobile,NC
39,(558) 117-6796,47 First Parkway,1,Memphis,MT
40,980-564-8136,562 West Old Parkway,1,Anchorage,MO
41,(873) 972-5839,17 Hague Street,1,Minneapolis,NJ
42,(001) 361-5863,543 White Nobel Blvd.,1,Fresno,MA
43,(769) 066-3271,973 Clarendon St.,1,Seattle,NM
44,328-162-0624,72 West White Cowley Blvd.,1,Mesa,AK
45,140-590-8898,763 South Oak Parkway,1,Grand Rapids,OH
46,(699) 004-0925,112 White Fabien Way,1,Anaheim,KS
47,(632) 667-1155,34 Clarendon Avenue,1,San Diego,IA
48,(407) 411-6049,154 White New Way,1,Milwaukee,MT
49,(403) 912-5314,985 White Milton Drive,1,Wichita,PA
50,(786) 908-2809,464 West Clarendon Avenue,1,Lubbock,PA
51,720-184-8569,154 Rocky Oak Road,1,Cleveland,IL
52,(432) 733-3994,137 Green Nobel St.,1,Stockton,ND
53,(850) 387-2434,313 First Boulevard,1,Albuquerque,NV
54,(918) 886-6014,466 South White Fabien Freeway,1,New York,AR
55,(817) 801-4653,897 North Rocky Second Parkway,1,Fort Worth,CO
56,(077) 978-1951,693 East White Milton St.,1,Cleveland,OK
57,807-784-7563,690 East Rocky First Parkway,1,Spokane,TN
58,614-757-3943,130 East Oak Boulevard,1,Spokane,NJ
59,(071) 314-8753,34 Oak St.,1,Bakersfield,CA
60,016-115-5042,97 Fabien Street,1,Corpus Christi,LA
61,(683) 771-4904,71 North Green Hague Way,1,Garland,SD
62,(279) 878-3819,154 Clarendon Street,1,Tampa,NE
63,(202) 747-3258,34 Fabien Freeway,1,Richmond,PA
64,665-937-1035,40 Hague Avenue,1,Baltimore,WY
65,(551) 617-7967,36 Clarendon Way,1,Portland,NE
66,(477) 975-2497,30 North Hague Boulevard,1,Austin,VT
67,(917) 324-0726,44 Old Road,1,San Antonio,MD
68,(861) 953-2453,474 North Green New Freeway,1,Anaheim,KS
69,279-914-2431,58 Oak Boulevard,1,Baton Rouge,DE
70,707-428-3685,84 Green Milton Road,1,Buffalo,IA
71,(826) 255-7261,46 Milton Freeway,1,Colorado,AZ
72,379-866-6297,773 Old Parkway,1,Tacoma,OK
73,(420) 097-7391,98 South First Drive,1,Phoenix,WI
74,(346) 362-7075,59 Cowley Avenue,1,Newark,GA
75,531-507-1319,76 Oak Road,1,Des Moines,OH
76,(968) 528-6634,618 East Fabien Parkway,1,Riverside,WY
77,(506) 003-2460,57 Rocky Cowley Way,1,Nashville,UT
78,230-186-2096,489 White Milton Avenue,1,Colorado,DE
79,740-799-6683,24 Green Second Freeway,1,Fort Wayne,AZ
80,(340) 509-5934,58 North White Clarendon Avenue,1,Kansas,ME
81,(764) 296-3537,45 Second Boulevard,1,Stockton,ND
82,646-717-9417,158 Rocky Old Way,1,Boston,NV
83,(917) 744-1300,166 Green Oak Street,1,Jackson,MD
84,041-185-2570,508 South First St.,1,New Orleans,LA
85,603-518-8004,334 White Fabien Avenue,1,Dallas,WI
86,227-107-3366,559 Second Way,1,Jersey,WY
87,925-753-0557,84 Cowley Boulevard,1,Rochester,NV
88,607-199-7096,312 Cowley Freeway,1,Memphis,MT
89,(698) 201-5371,405 South White Second St.,1,Fremont,ID
90,(111) 288-6059,84 West Rocky Old Avenue,1,Anchorage,MT
91,457-325-6657,59 East Green New Boulevard,1,Rochester,NV
92,538-698-8543,65 Oak Avenue,1,Wichita,PA
93,(384) 222-6680,95 New Blvd.,1,Long Beach,TN
94,(458) 097-1528,698 White Milton Avenue,1,Fresno,MA
95,(726) 918-1155,74 Milton St.,1,Philadelphia,MO
96,711-471-6033,95 Second Road,1,Newark,GA
97,680-042-0703,870 Milton Avenue,1,Miami,NY
98,(368) 124-3643,344 Green First St.,1,Raleigh,NJ
99,657-572-1243,66 West Hague Way,1,San Jose,AL
100,(135) 558-1813,467 Green Oak Street,1,Des Moines,RI
101,438-787-0474,241 Rocky Second St.,1,Shreveport,VT
102,(560) 908-1371,142 East White Hague Way,1,Riverside,WY
103,384-058-3764,240 West Hague Freeway,1,Kansas,NH
104,303-184-7436,664 White Hague Avenue,1,Jersey,VT
105,149-211-0448,93 North Old Way,1,Charlotte,WA
106,(231) 327-0607,918 Nobel Blvd.,1,Detroit,KY
107,(109) 745-7015,235 South Oak Blvd.,1,Colorado,MD
108,(086) 663-2735,525 White Milton Boulevard,1,Madison,SC
109,435-830-5017,82 Hague St.,1,Seattle,ND
110,(503) 851-9605,333 New Parkway,1,Madison,IA
111,(710) 654-4560,25 Green Nobel Freeway,1,Miami,WA
112,(352) 499-4571,96 New St.,1,Norfolk,NY
113,384-842-0906,32 South Milton Road,1,Miami,WA
114,670-407-4214,579 East Green Fabien Boulevard,1,Newark,DE
115,744-510-1326,447 Rocky Nobel Street,1,Fremont,ID
116,428-175-4968,48 West Rocky Oak Freeway,1,Colorado,AZ
117,421-765-4517,470 North White Clarendon Parkway,1,Louisville,AK
118,(675) 279-4339,286 Old Way,1,Baton Rouge,GA
119,(958) 511-1792,152 South White New Street,1,Fort Wayne,DE
120,(826) 649-4968,922 New Street,1,El Paso,OH
121,880-547-6319,20 West Milton Street,1,Fort Worth,UT
122,678-203-7935,77 North First Freeway,1,Dallas,OK
123,(190) 199-7269,26 Clarendon St.,1,Phoenix,GA
124,(522) 511-0658,140 White New Way,1,Aurora,NY
125,003-357-3389,419 New Freeway,1,Rochester,OR
126,063-935-7790,743 Oak Street,1,Columbus,IL
127,(841) 022-8566,860 Clarendon Street,1,Jacksonville,MI
128,(987) 286-2295,296 Green Oak Boulevard,1,Honolulu,WI
129,(360) 439-1596,467 Cowley Street,1,Tucson,MI
130,(776) 176-9382,50 Oak Boulevard,1,Birmingham,WY
131,293-073-5318,612 Clarendon Freeway,1,Detroit,VA
132,616-737-6533,648 North Fabien Blvd.,1,St. Paul,CT
133,664-556-2462,619 White Cowley Road,1,Honolulu,GA
134,221-852-7244,906 Oak Freeway,1,Anaheim,HI
135,271-895-9023,815 Cowley Blvd.,1,Minneapolis,NV
136,(919) 311-4053,70 Nobel Parkway,1,Boston,CO
137,(816) 880-3940,631 South Rocky Second Way,1,Omaha,AZ
138,(210) 187-3905,45 New Way,1,Wichita,AK
139,301-659-3156,275 East Milton Parkway,1,Fort Worth,CO
140,(891) 081-9924,47 White New Road,1,Atlanta,MN
141,(770) 110-8834,39 Hague Avenue,1,Dayton,OK
142,(890) 427-8748,703 North Green Nobel Way,1,Dallas,OK
143,012-460-0141,686 Fabien Blvd.,1,Philadelphia,FL
144,(129) 464-9798,95 Second Freeway,1,Sacramento,CA
145,938-491-5006,918 West Second Street,1,Lincoln,MN
146,(880) 813-7830,48 Green Hague Freeway,1,Baltimore,VT
147,153-087-3074,98 White Clarendon Street,1,Jackson,MD
148,(685) 321-7694,59 South Milton Blvd.,1,Chicago,MI
149,509-314-7465,74 Rocky Oak St.,1,Akron,RI
150,(595) 799-3663,82 White New Boulevard,1,Louisville,AK
151,865-831-1212,890 White Clarendon Drive,1,Boston,WV
152,001-706-0570,249 Oak Avenue,1,Kansas,ME
153,(737) 352-8060,961 Rocky Oak Freeway,1,Virginia Beach,CO
154,833-938-5857,790 Old Blvd.,1,Lubbock,PA
155,(608) 055-5184,93 North Hague Street,1,Tulsa,HI
156,(201) 148-2200,732 West Green Second Parkway,1,Nashville,IN
157,783-114-1703,55 New Freeway,1,Arlington,KS
158,716-980-7868,34 Rocky Old Drive,1,Hialeah,KS
159,(768) 819-8322,606 Green Second Way,1,Arlington,CA
160,846-789-6509,39 Old Parkway,1,Baltimore,VT
161,(148) 940-9055,21 Rocky Milton Parkway,1,Shreveport,TX
162,(222) 165-1913,891 White Hague Avenue,1,San Diego,AL
163,929-765-4931,199 New Parkway,1,Minneapolis,OR
164,(461) 798-3377,734 South Fabien St.,1,Phoenix,DE
165,291-445-1784,17 New Way,1,Garland,IA
166,(723) 328-7860,58 West Cowley Street,1,Oklahoma,ND
167,950-870-8878,72 New Street,1,Detroit,MN
168,444-486-0735,80 Milton Blvd.,1,Jacksonville,TN
169,228-597-6856,249 Fabien Parkway,1,Atlanta,AR
170,443-401-4459,58 Old Way,1,Cincinnati,MA
171,436-843-0337,879 Milton Freeway,1,Los Angeles,KS
172,(856) 036-4808,301 West Nobel Blvd.,1,Montgomery,VA
173,738-981-2284,983 Hague Drive,1,San Francisco,NE
174,401-023-7786,707 Green First Blvd.,1,Philadelphia,MO
175,(973) 837-4672,378 East Second Avenue,1,Anchorage,MO
176,330-471-6383,389 Milton Boulevard,1,Aurora,WA
177,507-523-9864,49 First Drive,1,Madison,SC
178,(549) 475-7214,25 South Oak Street,1,Tampa,NE
179,001-880-9364,72 Second Road,1,Mobile,OH
180,(429) 638-3087,283 Green Cowley Parkway,1,Oakland,ME
181,(342) 573-6162,330 Rocky Nobel Street,1,San Diego,IA
182,551-479-2073,11 North Green Oak Parkway,1,Jersey,WY
183,616-680-1595,590 East Second Way,1,Hialeah,NM
184,583-576-8825,852 East Fabien Way,1,Jersey,VT
185,(113) 042-4659,41 White Fabien Road,1,Yonkers,LA
186,(460) 149-7279,88 East Hague Blvd.,1,Richmond,PA
187,(377) 513-1640,43 Second Freeway,1,El Paso,FL
188,(479) 653-7348,14 Rocky Hague Parkway,1,Shreveport,TX
189,404-141-8539,10 Fabien Road,1,Aurora,NY
190,434-180-3137,853 Hague St.,1,Montgomery,SC
191,046-254-2488,46 Fabien Way,1,Austin,AR
192,832-776-8360,47 Rocky Oak Drive,1,Fort Worth,MA
193,636-806-9672,74 New Drive,1,Fremont,PA
194,(101) 021-9797,76 East First Drive,1,Corpus Christi,IN
195,(530) 804-7498,899 Nobel Street,1,Colorado,MD
196,(469) 732-1304,953 North Fabien Parkway,1,Kansas,NH
197,(394) 509-5539,371 First Road,1,New York,VT
198,273-265-7400,646 Rocky Clarendon St.,1,Raleigh,NJ
199,(161) 785-9820,62 Rocky New Boulevard,1,Kansas,MI
200,041-496-0826,57 Rocky First Parkway,1,San Antonio,MS
201,(100) 624-3010,70 East White Oak Parkway,1,San Jose,IA
202,749-172-3264,403 North Rocky Nobel Road,1,St. Louis,RI
203,(621) 846-8732,42 Green New Boulevard,1,Sacramento,WA
204,(015) 226-9043,235 Second St.,1,San Jose,IA
205,688-261-8913,21 North Second Way,1,Akron,OH
206,628-202-6128,817 South White Hague Road,1,Montgomery,VA
207,(317) 573-8107,44 East Rocky Oak Boulevard,1,Nashville,UT
208,(252) 498-1608,53 Oak Blvd.,1,Denver,WV
209,179-607-2770,73 Fabien St.,1,Little Rock,VA
210,(377) 020-8341,129 Rocky First Parkway,1,St. Louis,RI
211,(904) 088-1619,45 Clarendon Way,1,Riverside,NC
212,(251) 423-8473,249 Cowley St.,1,Birmingham,TX
213,(969) 717-2095,85 Rocky Milton Drive,1,Sacramento,CA
214,504-057-1060,342 White Second Way,1,Yonkers,LA
215,(199) 470-6620,999 North White Oak Boulevard,1,Fort Worth,CO
216,213-409-0729,52 West Old Boulevard,1,Detroit,VA
217,(498) 820-0310,859 Rocky Cowley Parkway,1,Jackson,AZ
218,(378) 879-7752,25 White Old Parkway,1,Buffalo,IA
219,924-431-8414,48 Green Milton Blvd.,1,Pittsburgh,CO
220,(007) 894-8206,754 White Cowley Drive,1,Milwaukee,MT
221,101-563-8658,835 South Old St.,1,Austin,VT
222,939-690-9136,763 West Rocky First Boulevard,1,Jacksonville,NH
223,314-676-3493,29 Second Way,1,Las Vegas,NH
224,108-182-3797,78 Old Street,1,Dallas,CT
225,(002) 665-2720,73 Hague Blvd.,1,Baltimore,NC
226,044-485-3351,66 Nobel Drive,1,Rochester,NV
227,(878) 416-1069,75 Green Hague Avenue,1,Colorado,DE
228,,74 Rocky Hague Parkway,1,Nashville,LA
229,807-804-2534,73 Rocky Clarendon Way,1,Long Beach,TN
230,794-278-8367,14 White Old Parkway,1,Minneapolis,NV
231,236-211-5423,390 Rocky Nobel Avenue,1,Jersey,NC
232,(434) 345-6168,15 Old Boulevard,1,Detroit,MN
233,244-476-8827,340 Hague Blvd.,1,Lincoln,TX
234,(392) 490-9740,536 Green Nobel Freeway,1,San Diego,SD
235,(758) 689-9195,84 Hague Boulevard,1,Seattle,HI
236,(466) 409-8845,18 Rocky Second Way,1,Tacoma,OK
237,(566) 551-0901,781 West Rocky Oak Street,1,Milwaukee,MT
238,909-550-0860,469 Milton Drive,1,Mesa,AK
239,(699) 626-4407,418 White Milton Road,1,Jersey,NC
240,(575) 586-9506,40 White Old Parkway,1,Aurora,WA
241,587-596-9053,956 Second Blvd.,1,Birmingham,VT
242,(648) 097-2352,63 White Second Road,1,Norfolk,MT
243,930-647-6524,311 East White Oak Parkway,1,Greensboro,OH
244,756-391-7166,14 Nobel Boulevard,1,Cleveland,IL
245,549-471-9660,99 East White Second Parkway,1,St. Paul,CT
246,725-426-6395,249 West Rocky First St.,1,Tucson,TN
247,683-940-6998,379 Rocky Hague Street,1,Lubbock,IL
248,(505) 918-5913,83 North Rocky Fabien Parkway,1,Norfolk,FL
249,753-960-3604,96 Rocky Old Road,1,St. Paul,WI
250,666-851-8555,126 Milton Street,1,Tampa,MS
251,238-815-5087,998 South White Clarendon Drive,1,Anchorage,FL
252,(782) 138-3540,24 New Freeway,1,Little Rock,VA
253,783-988-8468,329 South Rocky Hague Freeway,1,Atlanta,TX
254,058-468-2033,24 Old Street,1,St. Louis,NC
255,(931) 433-7372,557 Nobel Parkway,1,Anaheim,HI
256,089-438-6460,839 White Cowley Way,1,Indianapolis,IN
257,(520) 550-3845,72 Old Drive,1,Spokane,NJ
258,(842) 118-1090,77 Second Road,1,Omaha,MD
259,(671) 151-3170,48 North Green Hague Freeway,1,Pittsburgh,WV
260,408-159-1491,132 White Cowley Blvd.,1,San Diego,SD
261,107-189-6045,445 Green First Street,1,Indianapolis,NE
262,(115) 339-1089,26 Rocky Milton Freeway,1,Akron,RI
263,(674) 613-3288,324 Rocky Nobel Drive,1,Riverside,NC
264,484-351-8875,336 First Boulevard,1,St. Petersburg,OK
265,(866) 659-5490,71 White Old St.,1,Kansas,ME
266,(722) 706-6256,93 Oak Road,1,Madison,IA
267,(862) 923-6620,427 Green Cowley Drive,1,Newark,DE
268,206-431-6270,667 West White Nobel Road,1,Washington,AL
269,(036) 330-1808,64 Cowley Freeway,1,Boston,WV
270,(652) 110-5228,539 West Green Milton Freeway,1,Hialeah,NM
271,003-886-9265,34 Green Cowley Street,1,Los Angeles,HI
272,(882) 909-9982,949 White Nobel Parkway,1,Shreveport,VT
273,847-789-4096,70 Rocky Hague Street,1,Pittsburgh,CO
274,(591) 777-9594,56 Oak St.,1,Glendale,WI
275,(031) 223-5185,14 Fabien St.,1,Fremont,ID
276,(316) 655-8247,42 First Street,1,Baltimore,NC
277,516-601-9332,694 Clarendon Blvd.,1,Arlington,WA
278,(497) 303-8686,22 Green Milton Street,1,Houston,OR
279,(481) 530-5583,24 Second Boulevard,1,Colorado,MD
280,239-555-4236,388 South Rocky New Way,1,Mobile,RI
281,204-605-1867,17 Clarendon Drive,1,Oakland,ME
282,413-415-6418,216 East White Oak Way,1,St. Louis,NC
283,(391) 630-1875,602 West Old Drive,1,Pittsburgh,WV
284,217-554-8316,88 White Oak Parkway,1,Pittsburgh,WV
285,(398) 696-7716,631 South Cowley Street,1,Memphis,FL
286,043-443-6328,142 Rocky Nobel St.,1,Toledo,SD
287,(178) 130-9986,69 Milton Way,1,Detroit,MN
288,(306) 542-0117,640 Green Nobel Way,1,Montgomery,KY
289,(354) 860-9155,58 White Old Street,1,Rochester,OR
290,431-920-6427,218 South Old St.,1,Portland,NE
291,668-918-4088,14 White Cowley Avenue,1,Mobile,OH
292,(053) 538-0471,87 South Clarendon Way,1,Austin,VT
293,904-723-2167,860 Second St.,1,San Jose,ME
294,(909) 275-1215,474 First Blvd.,1,Fort Worth,CO
295,635-314-6708,73 South Green Clarendon Street,1,Virginia Beach,CO
296,(213) 187-5690,681 North Hague Way,1,Lincoln,AR
297,(919) 336-6730,343 Hague Avenue,1,St. Petersburg,CT
298,410-677-8330,19 North Hague Drive,1,St. Paul,GA
299,(899) 954-7946,767 Old Road,1,Richmond,AK
300,(565) 215-5544,91 White Milton Freeway,1,Grand Rapids,FL
301,(267) 090-8000,347 East Green Old Avenue,1,Shreveport,VT
302,(419) 544-8281,10 Oak Avenue,1,Mesa,AK
303,(348) 441-1162,721 Clarendon Way,1,Cleveland,CT
304,(841) 959-6486,310 North White Old Road,1,Charlotte,NY
305,754-852-1457,145 Hague Way,1,St. Paul,CT
306,973-054-0715,792 Milton Street,1,Cincinnati,CO
307,737-914-7638,262 East Oak Street,1,Riverside,WY
308,265-774-1569,63 Milton Drive,1,Tacoma,OK
309,578-936-7887,22 Oak Drive,1,Jacksonville,TN
310,970-900-1878,97 Clarendon Street,1,Dayton,IL
311,(221) 590-7083,54 West White Old Avenue,1,Bakersfield,CA
312,874-909-4305,750 West White Milton Way,1,Boston,NV
313,(505) 874-6818,166 West Green Milton Blvd.,1,Little Rock,AR
314,(003) 255-4794,95 Clarendon St.,1,Minneapolis,NJ
315,778-694-4750,84 White Old Way,1,Birmingham,WY
316,(058) 793-9428,444 Second Road,1,Baton Rouge,DE
317,581-758-9213,30 Oak Blvd.,1,Detroit,VA
318,(560) 513-8869,854 Cowley Avenue,1,Las Vegas,ME
319,746-331-5024,462 Cowley Avenue,1,Grand Rapids,MO
320,(569) 508-3023,81 South Cowley Drive,1,Los Angeles,KS
321,037-961-5390,73 White Old Freeway,1,Denver,NV
322,(000) 723-9245,78 Milton Blvd.,1,Anchorage,MO
323,(065) 555-3458,747 East New Avenue,1,Arlington,WA
324,164-882-9265,48 Milton Boulevard,1,Omaha,MD
325,(443) 375-7956,812 Rocky Fabien Boulevard,1,Spokane,TN
326,655-240-8974,34 Hague Avenue,1,Indianapolis,NE
327,(633) 267-0152,68 White Clarendon Boulevard,1,Anaheim,HI
328,(849) 336-6728,47 Rocky Milton Drive,1,Bakersfield,CA
329,646-581-6538,757 Green New Boulevard,1,New Orleans,IN
330,(533) 974-9408,51 Old Avenue,1,Fremont,PA
331,656-762-5675,59 East Green Hague Way,1,Colorado,AZ
332,(849) 288-4281,12 West Clarendon St.,1,Mobile,NC
333,417-987-8915,49 South Green Cowley Boulevard,1,Lubbock,ID
334,862-695-5651,59 East New Avenue,1,Shreveport,VT
335,(045) 801-9061,58 North Nobel St.,1,Santa Ana,UT
336,593-195-0557,908 First Boulevard,1,Baton Rouge,AZ
337,610-440-3566,170 White Hague Parkway,1,Oklahoma,NM
338,726-280-3894,355 North Green Old Way,1,Columbus,ID
339,300-327-9872,54 Rocky Fabien Street,1,Boston,NV
340,670-100-8058,16 New Avenue,1,Greensboro,OH
341,728-670-4525,685 White Milton Road,1,Chicago,MI
342,287-198-8437,323 Cowley Road,1,Grand Rapids,MO
343,(206) 360-0769,392 Green Nobel Way,1,Chicago,NH
344,(252) 215-3579,58 West Rocky Cowley Drive,1,Seattle,ND
345,(346) 550-8721,47 Hague Road,1,Bakersfield,KS
346,792-852-1750,160 South Hague Way,1,Greensboro,RI
347,(607) 483-1845,872 Cowley Parkway,1,Montgomery,SC
348,(653) 202-2606,95 Green Nobel Freeway,1,Dayton,IL
349,383-588-9870,80 Cowley Avenue,1,Long Beach,MI
350,(846) 246-4379,517 Hague St.,1,Dallas,CT
351,712-923-5004,86 Green New Drive,1,Santa Ana,UT
352,544-815-9734,278 South Green Second Drive,1,Baltimore,NC
353,(396) 950-5918,83 White Milton Parkway,1,Baltimore,WY
354,952-470-9508,93 Rocky Hague Blvd.,1,Dallas,WI
355,254-768-4444,163 Fabien Parkway,1,Bakersfield,KS
356,941-399-4596,70 East Old St.,1,Des Moines,NC
357,904-815-5611,139 Rocky Second Boulevard,1,Grand Rapids,OH
358,183-929-4047,692 Milton Parkway,1,Little Rock,AR
359,085-946-9356,557 Old Avenue,1,New York,TX
360,(948) 251-1874,756 Green Fabien Way,1,Albuquerque,OR
361,(646) 169-1023,661 East Rocky New Parkway,1,Buffalo,AL
362,895-905-1354,673 Rocky Second Way,1,Oakland,NH
363,763-916-7456,745 Green New Avenue,1,Memphis,FL
364,389-838-3343,408 East Milton Parkway,1,Baltimore,WY
365,225-959-6636,82 North Rocky Clarendon Road,1,Portland,IN
366,(218) 116-4653,27 West Oak Parkway,1,Cleveland,IL
367,291-182-8763,932 Clarendon Parkway,1,Nashville,IN
368,(125) 159-5128,45 Fabien Way,1,Nashville,LA
369,(791) 942-5743,94 First Street,1,Raleigh,OR
370,206-782-0429,74 North Hague Drive,1,Albuquerque,OR
371,493-747-6130,99 Nobel Blvd.,1,Seattle,NM
372,687-639-5502,77 Oak Boulevard,1,Atlanta,TX
373,973-812-4155,209 White Old St.,1,Arlington,CA
374,453-375-6431,48 North First Drive,1,Wichita,PA
375,(482) 720-7313,58 Second Parkway,1,Garland,IA
376,(452) 461-1389,98 East Green Fabien Freeway,1,St. Petersburg,CT
377,086-031-8086,94 West White Cowley Avenue,1,Spokane,TN
378,(796) 447-2274,31 North Clarendon Parkway,1,Baton Rouge,GA
379,696-238-7439,14 West Rocky Nobel St.,1,Montgomery,VA
380,712-352-7945,184 Fabien Parkway,1,Los Angeles,HI
381,639-569-3049,127 Rocky Second Parkway,1,San Diego,AL
382,216-593-0012,86 White Clarendon Boulevard,1,Seattle,NM
383,(173) 391-5832,49 North Second Way,1,Mobile,RI
384,812-839-3809,963 Cowley Drive,1,Tucson,MI
385,383-458-7767,807 North Rocky Milton Street,1,Dayton,OK
386,672-062-8737,21 First Parkway,1,Long Beach,MI
387,(446) 350-4073,700 Clarendon Road,1,Little Rock,AR
388,447-709-6799,213 Hague Parkway,1,Norfolk,NY
389,(069) 121-0241,898 Green Second Drive,1,St. Louis,WY
390,314-603-9203,44 Oak Road,1,Milwaukee,NY
391,894-156-1017,134 Cowley Freeway,1,Raleigh,OR
392,356-292-3133,31 North Milton Way,1,Lubbock,ID
393,(676) 524-7993,64 Nobel Boulevard,1,Milwaukee,MT
394,(035) 019-5417,76 Cowley Parkway,1,Birmingham,TX
395,631-481-4317,50 Milton Blvd.,1,Los Angeles,HI
396,866-565-5429,32 White Oak Boulevard,1,Tacoma,ID
397,126-515-8185,627 Rocky Old Road,1,San Francisco,MD
398,(917) 275-7119,734 South First Boulevard,1,Atlanta,MN
399,775-082-6216,79 East Nobel Way,1,Detroit,KY
400,851-390-6960,20 West Rocky Hague Way,1,Glendale,CT
401,457-386-6245,65 North Green Second Parkway,1,Richmond,AK
402,(551) 910-0168,986 East Rocky Hague Road,1,Cleveland,IL
403,058-107-5538,277 White Nobel St.,1,Detroit,MN
404,985-538-7005,20 South New Drive,1,Milwaukee,NY
405,(458) 130-4443,256 Clarendon St.,1,Charlotte,NY
406,962-432-5923,607 North Second Freeway,1,Riverside,WY
407,(779) 757-6873,77 White Old Road,1,Bakersfield,CA
408,313-451-8918,88 South Milton Road,1,Baton Rouge,GA
409,(092) 912-5853,261 North Green Milton Drive,1,Stockton,NM
410,944-739-5098,545 Nobel Road,1,Cleveland,OK
411,894-469-5845,15 First Street,1,Houston,NJ
412,557-901-5017,950 Fabien Drive,1,Mobile,NC
413,(329) 368-3689,229 Milton Drive,1,Corpus Christi,LA
414,(856) 638-3887,46 White Oak Freeway,1,Fresno,MA
415,(447) 433-9319,37 Clarendon Drive,1,Columbus,IL
416,101-995-3908,55 White First Drive,1,Virginia Beach,MA
417,801-231-9147,16 Oak Avenue,1,Richmond,ND
418,630-488-6874,578 East Second Drive,1,Phoenix,GA
419,077-694-1574,91 Nobel St.,1,Nashville,UT
420,105-003-9348,54 North New Parkway,1,Dallas,CT
421,(438) 369-4919,324 Rocky Nobel Way,1,Baltimore,WY
422,(149) 961-2649,953 Green Second Parkway,1,Garland,SD
423,(731) 584-7011,596 Cowley Parkway,1,Shreveport,VT
424,(660) 069-3488,57 East Clarendon Freeway,1,Charlotte,NY
425,(112) 693-7231,85 White First Freeway,1,Jacksonville,MI
426,(798) 329-5384,80 White Oak Freeway,1,Atlanta,MN
427,(079) 357-7653,631 White Nobel Street,1,Long Beach,TN
428,977-267-5042,19 Old Street,1,Tampa,MS
429,695-900-3687,69 South Fabien Boulevard,1,Indianapolis,MS
430,112-636-6023,760 Green Hague Blvd.,1,Santa Ana,UT
431,292-719-1434,729 Rocky First Blvd.,1,Des Moines,NC
432,409-053-7465,65 Rocky Nobel Parkway,1,Cincinnati,WV
433,248-547-4893,56 Old St.,1,Dallas,CT
434,(086) 774-0729,938 Old Boulevard,1,Des Moines,RI
435,(174) 316-5781,49 West White Cowley Road,1,Mobile,RI
436,(515) 302-7371,99 East Milton Drive,1,San Francisco,MD
437,(313) 292-3700,446 East Second Blvd.,1,Detroit,MN
438,293-640-1552,584 Second Way,1,Birmingham,VT
439,004-792-4292,898 West Old St.,1,Greensboro,OH
440,876-387-9259,897 Oak Boulevard,1,Phoenix,GA
441,970-317-2927,420 Second Street,1,Indianapolis,IN
442,(416) 721-9286,53 North Green Clarendon Avenue,1,Grand Rapids,OH
443,(026) 374-1985,54 North Green Old Street,1,Hialeah,NM
444,(579) 783-6013,67 East Hague Freeway,1,Miami,NY
445,(770) 651-2433,61 White Fabien Way,1,Cincinnati,WV
446,(965) 158-2296,83 Old Avenue,1,Raleigh,TN
447,656-489-8295,70 West Green Cowley Parkway,1,Garland,IA
448,(452) 468-5017,30 South Green Hague Freeway,1,Jersey,NC
449,487-793-7295,340 South Old St.,1,Colorado,DE
450,732-237-9511,95 White Clarendon Street,1,Shreveport,TX
451,(068) 139-4883,21 Old Freeway,1,Jacksonville,MI
452,(704) 732-7653,79 Green Oak Street,1,Baton Rouge,AZ
453,819-665-3234,828 Old Avenue,1,Glendale,CT
454,846-189-1230,835 White Hague St.,1,St. Louis,WY
455,(921) 412-9375,53 West Clarendon Freeway,1,Aurora,NY
456,(625) 662-9610,15 Oak Avenue,1,Jackson,AZ
457,061-261-0505,65 West Green Oak Freeway,1,Birmingham,VT
458,(431) 623-6047,782 Rocky Oak Freeway,1,Glendale,CT
459,257-343-1125,235 White Hague Street,1,San Diego,SD
460,202-278-5435,126 West Rocky Cowley Boulevard,1,Tampa,NE
461,(001) 059-7610,296 Oak Way,1,Detroit,KY
462,(294) 796-8258,85 Milton Blvd.,1,Portland,NE
463,920-912-9659,333 White Fabien Freeway,1,Grand Rapids,MO
464,(269) 564-0385,234 Clarendon Parkway,1,Norfolk,NY
465,(289) 735-5409,420 Clarendon Boulevard,1,Baltimore,WY
466,975-493-3321,306 East New Avenue,1,Minneapolis,OR
467,(168) 787-7320,22 Milton Street,1,Long Beach,TN
468,(051) 626-8105,503 South Rocky Second Road,1,Mobile,OH
469,(568) 223-5621,113 West Old Street,1,Honolulu,WI
470,(014) 860-1649,460 First Parkway,1,Indianapolis,MS
471,864-765-4689,753 White Second Freeway,1,Charlotte,WA
472,(953) 881-7663,41 Cowley Road,1,Louisville,ID
473,(421) 540-2037,58 South Nobel Way,1,Dallas,CT
474,(675) 388-3808,681 Oak Blvd.,1,Stockton,NM
475,975-586-5648,76 Clarendon St.,1,Houston,OR
476,(332) 529-0792,27 Rocky Old Way,1,Stockton,NM
477,921-799-5914,79 White Nobel Street,1,Virginia Beach,MA
478,(294) 673-6934,77 Milton St.,1,El Paso,OH
479,(673) 883-4712,15 Rocky First Avenue,1,Washington,ME
480,(830) 956-2452,23 Hague Drive,1,Louisville,PA
481,(623) 787-5753,83 White Cowley Street,1,Fort Worth,UT
482,(574) 442-9256,443 Nobel Blvd.,1,Atlanta,AR
483,(498) 447-3943,637 North Green Hague Way,1,Lincoln,TX
484,(825) 376-0179,196 Milton Blvd.,1,Tacoma,ID
485,216-522-9897,588 White New Road,1,San Jose,AL
486,(359) 314-7925,41 North Rocky Second Way,1,San Diego,SD
487,969-738-2378,737 Nobel Street,1,Arlington,KS
488,366-531-1565,667 Old Parkway,1,Grand Rapids,FL
489,478-436-9498,85 Oak Street,1,St. Petersburg,OK
490,(263) 313-2605,63 Rocky Old Road,1,Oklahoma,NM
491,538-527-4744,36 Oak Avenue,1,Oklahoma,ND
492,726-992-1016,765 Hague Way,1,Toledo,KY
493,(429) 517-5731,60 New Parkway,1,Raleigh,TN
494,,96 White Clarendon Road,1,Tucson,TN
495,(160) 523-9358,72 Green Second Drive,1,Jersey,WY
496,(280) 040-7594,285 South Green Milton Road,1,Minneapolis,NJ
497,(793) 643-0210,388 Cowley Blvd.,1,Akron,OH
498,363-973-6519,83 Milton Avenue,1,El Paso,OH
499,849-912-9717,31 Old Boulevard,1,Kansas,NH
500,787-467-2255,47 Rocky Hague Parkway,1,Mobile,OH
501,286-737-2007,93 Second Freeway,1,Virginia Beach,MA
502,(655) 269-7140,136 West White New Blvd.,1,Portland,NE
503,(275) 327-0402,46 South New Avenue,1,Charlotte,CA
504,579-544-7331,675 Cowley Way,1,Los Angeles,HI
505,(052) 002-4648,334 Nobel Street,1,Riverside,RI
506,400-772-1758,35 First Drive,1,Austin,TX
507,(920) 230-1418,654 White Oak St.,1,Tacoma,ID
508,322-782-3243,88 First Boulevard,1,Oklahoma,NM
509,(350) 765-5363,912 White Old Boulevard,1,Little Rock,MN
510,958-827-5904,995 New Road,1,Charlotte,NY
511,(887) 191-4912,504 North Rocky Fabien Street,1,Washington,ME
512,(680) 227-3549,895 Rocky Hague St.,1,Santa Ana,LA
513,(911) 323-6715,63 Cowley Freeway,1,Grand Rapids,OH
514,197-752-8620,57 West Fabien Freeway,1,Omaha,AZ
515,423-676-7991,653 North New Street,1,Las Vegas,NH
516,223-546-7817,862 Nobel Avenue,1,Colorado,MD
517,(250) 713-3999,25 East Oak Way,1,Phoenix,GA
518,,36 Cowley St.,1,Jersey,VT
519,286-733-3450,262 First St.,1,Virginia Beach,CO
520,450-620-8646,344 Second Parkway,1,Corpus Christi,NE
521,937-881-1597,264 Clarendon Way,1,Corpus Christi,LA
522,256-639-8033,627 Green Second St.,1,Jacksonville,NH
523,991-846-7926,55 White Hague Freeway,1,Indianapolis,IN
524,359-340-0802,47 Rocky Clarendon Parkway,1,Nashville,UT
525,472-020-3894,81 North Clarendon Street,1,St. Louis,NC
526,873-445-0403,27 Green Cowley Way,1,Charlotte,CA
527,931-554-7766,27 South Green Hague Blvd.,1,Anaheim,CA
528,(109) 485-4074,94 Nobel Way,1,San Diego,AL
529,674-242-7294,753 Green Second Avenue,1,Cleveland,CT
530,963-031-5181,966 East Rocky Old Blvd.,1,Lincoln,TX
531,(908) 932-3839,51 Rocky Nobel Road,1,Stockton,ND
532,369-063-7932,125 Old Freeway,1,Oakland,NH
533,129-450-3843,964 West White First Freeway,1,Toledo,SC
534,254-496-2804,65 Nobel Avenue,1,Hialeah,NM
535,(397) 458-9153,164 White Second Road,1,Boston,CO
536,(315) 935-4279,762 East First Parkway,1,Denver,NV
537,(001) 293-0691,70 South Green Nobel Boulevard,1,Albuquerque,WV
538,(625) 905-2359,675 Green Cowley Street,1,Louisville,PA
539,540-540-0600,69 Old St.,1,Buffalo,AL
540,(097) 126-7609,54 West Rocky New Way,1,Toledo,KY
541,884-328-6557,93 East Green Nobel Boulevard,1,St. Petersburg,OK
542,(290) 851-5673,880 Rocky Clarendon Avenue,1,Chicago,MI
543,(733) 620-1779,631 Oak St.,1,Spokane,NJ
544,(322) 188-6212,65 First Freeway,1,Anaheim,KS
545,375-858-1909,865 Old Blvd.,1,Yonkers,MA
546,721-569-4226,957 East Hague St.,1,Seattle,NM
547,(714) 448-2614,448 South Hague St.,1,Miami,NY
548,023-070-0260,561 Rocky First St.,1,Corpus Christi,NE
549,328-195-4642,424 Milton Drive,1,San Francisco,NE
550,(948) 192-8056,846 South Hague Freeway,1,Dallas,CT
551,027-980-7935,330 Second Way,1,Honolulu,WI
552,776-464-3586,581 Second Parkway,1,Honolulu,GA
553,386-129-9024,108 West Cowley Parkway,1,New Orleans,LA
554,(697) 323-3621,637 Milton Freeway,1,Corpus Christi,IN
555,815-185-2932,54 South White First Boulevard,1,Riverside,WY
556,(765) 349-8224,789 New St.,1,Madison,SD
557,492-443-4935,10 White First Avenue,1,Fresno,UT
558,(682) 174-1183,54 Fabien Freeway,1,Montgomery,KY
559,221-835-7376,77 Rocky Clarendon Way,1,Spokane,NJ
560,(257) 928-0031,915 West Nobel Boulevard,1,Buffalo,AL
561,801-995-8661,87 Green Milton Drive,1,Yonkers,MA
562,(084) 454-4042,59 West Green Milton Avenue,1,Cincinnati,CO
563,203-573-2663,456 North White Cowley Way,1,Atlanta,AR
564,(701) 039-6872,931 West First Way,1,Des Moines,RI
565,(517) 339-3963,187 Green New Drive,1,Denver,WV
566,(589) 147-9622,97 South Fabien St.,1,Corpus Christi,LA
567,(459) 401-8900,50 Cowley Road,1,Yonkers,MA
568,(721) 356-9608,688 Clarendon Blvd.,1,Wichita,AK
569,204-083-9390,889 Rocky Old St.,1,Baton Rouge,DE
570,(990) 377-4597,74 Oak Street,1,Anaheim,KS
571,(532) 509-5902,41 West Fabien Parkway,1,Cincinnati,WV
572,287-218-6057,16 White Second Parkway,1,Cleveland,OK
573,(681) 462-1242,820 North Fabien St.,1,El Paso,FL
574,400-084-8642,13 Old Avenue,1,Pittsburgh,WV
575,720-641-7770,12 Old Freeway,1,Fresno,UT
576,748-575-9465,928 South Second Avenue,1,Houston,NJ
577,(058) 868-1761,217 Green Second St.,1,Miami,MT
578,332-277-7570,740 East Hague Boulevard,1,Columbus,IL
579,(260) 305-8610,36 White New Boulevard,1,Anchorage,FL
580,202-782-2633,763 East Fabien Freeway,1,Los Angeles,KS
581,(724) 566-6688,48 South Oak Way,1,Minneapolis,OR
582,(568) 990-2232,92 North Green Milton Freeway,1,San Diego,AL
583,347-784-2340,750 South Cowley Way,1,Wichita,AK
584,(465) 610-7033,813 Green Old Drive,1,Cleveland,OK
585,014-782-8812,32 Hague Road,1,Arlington,KS
586,457-632-6468,25 West First Blvd.,1,Tulsa,HI
587,666-135-9133,37 North First Blvd.,1,Anchorage,FL
588,777-412-3473,17 East Rocky Fabien Parkway,1,Stockton,NM
589,496-145-1713,93 Green Second Avenue,1,Anchorage,MT
590,(555) 808-7245,859 Green Hague Parkway,1,Akron,MO
591,226-516-5410,73 Old Freeway,1,Miami,MT
592,502-786-8457,463 White First Blvd.,1,Chicago,NH
593,244-809-0282,739 Green Old St.,1,Raleigh,NJ
594,001-424-0386,60 White New Street,1,Corpus Christi,IN
595,322-517-0615,34 Green Hague Street,1,Little Rock,AR
596,092-107-2823,82 Green Milton Drive,1,El Paso,OH
597,(407) 246-0075,862 Cowley Road,1,Lincoln,MN
598,045-686-1457,298 West Rocky Second St.,1,Oakland,ME
599,944-027-9931,54 Old Street,1,Rochester,NV
600,916-288-2462,85 Old Avenue,1,Milwaukee,MT
601,826-707-5556,11 First Road,1,Austin,TX
602,(555) 840-7958,265 White New Way,1,Boston,NV
603,105-431-2849,20 Fabien Boulevard,1,Seattle,HI
604,510-682-8144,44 Oak Drive,1,Sacramento,CA
605,(578) 353-0718,895 Oak Blvd.,1,Anchorage,MT
606,260-875-9919,74 Rocky New Avenue,1,Birmingham,VT
607,133-030-0660,99 Oak Drive,1,Boston,WV
608,034-924-1455,61 South Green Clarendon Road,1,Stockton,NM
609,(896) 593-3174,58 West Rocky Old Avenue,1,St. Paul,WI
610,643-755-5397,638 White Oak Road,1,Atlanta,TX
611,(284) 017-9240,51 East Green Cowley Blvd.,1,Fresno,UT
612,920-376-1787,42 Green Second Boulevard,1,Tulsa,NM
613,(434) 844-7248,65 Hague Freeway,1,San Jose,IA
614,414-825-2443,16 Green Oak Parkway,1,San Antonio,MS
615,(766) 746-7621,240 White Clarendon Boulevard,1,Jersey,VT
616,480-702-3191,40 First Drive,1,Norfolk,FL
617,103-187-5104,69 New Boulevard,1,Cleveland,OK
618,374-308-3952,11 East Second Parkway,1,San Jose,ME
619,,922 White New Parkway,1,El Paso,MO
620,(353) 854-2600,362 White New Blvd.,1,Corpus Christi,NE
621,294-137-6286,552 Fabien Street,1,Portland,IN
622,(749) 508-8463,673 Rocky Oak Road,1,Hialeah,HI
623,(586) 251-4219,238 Oak Avenue,1,Virginia Beach,MA
624,908-379-7247,91 East First Way,1,Boston,NV
625,006-909-6536,632 Hague Parkway,1,Sacramento,WA
626,966-101-5406,11 Milton Road,1,Buffalo,IA
627,038-093-6498,607 North Old Blvd.,1,Las Vegas,ME
628,438-267-5754,388 Hague Blvd.,1,Sacramento,CA
629,(427) 417-6865,41 New Way,1,Dayton,IL
630,(927) 103-5449,877 Clarendon Way,1,Mobile,RI
631,(709) 909-6647,735 Milton Road,1,Birmingham,WY
632,(699) 621-0230,678 White Old Boulevard,1,St. Paul,GA
633,629-084-9069,785 Second Road,1,Fresno,MA
634,518-715-4737,89 North Green Clarendon Parkway,1,Greensboro,OH
635,062-077-7064,36 Old St.,1,Albuquerque,NV
636,080-757-4827,617 East Cowley Blvd.,1,Wichita,PA
637,810-995-8797,75 West Green Second Parkway,1,Phoenix,DE
638,477-445-7603,26 New Freeway,1,Tucson,TN
639,135-055-9357,389 South Green Hague Freeway,1,Detroit,VA
640,027-655-1021,735 Nobel Freeway,1,Little Rock,VA
641,442-241-1662,76 Rocky Milton Street,1,Arlington,WA
642,737-885-8061,867 Green Cowley Parkway,1,Richmond,AK
643,250-031-1841,84 Oak Street,1,Pittsburgh,CO
644,112-969-3536,64 East First Street,1,Akron,MO
645,510-972-5723,51 West Green Hague St.,1,Boston,WV
646,282-303-7228,193 Oak Way,1,Lincoln,MN
647,255-619-8427,48 East Fabien Street,1,Santa Ana,LA
648,(641) 964-2625,403 Green Second Street,1,Charlotte,WA
649,487-174-2966,20 Green Milton Street,1,Wichita,PA
650,(084) 880-0699,203 First Freeway,1,San Jose,AL
651,,87 Green Old Parkway,1,Anaheim,HI
652,(390) 405-6164,76 Cowley Drive,1,Toledo,SC
653,(229) 213-1777,666 White Oak Way,1,Aurora,WA
654,701-666-8523,822 Rocky Old Road,1,Boston,WV
655,129-850-6569,46 Cowley Drive,1,Houston,OR
656,(833) 232-0473,536 South Green Old Drive,1,Memphis,FL
657,340-231-7392,254 Green Fabien Parkway,1,Montgomery,SC
658,(355) 274-1504,43 Second Boulevard,1,Toledo,SD
659,255-604-5761,31 West Clarendon Blvd.,1,Yonkers,UT
660,596-332-8011,219 Rocky Clarendon Parkway,1,St. Paul,WI
661,258-556-8460,10 Clarendon Street,1,Pittsburgh,WV
662,(070) 849-8014,922 East Nobel Freeway,1,Des Moines,NC
663,(653) 459-8852,615 Oak Boulevard,1,Norfolk,NY
664,(123) 804-9021,304 Rocky Clarendon St.,1,Baton Rouge,DE
665,677-285-1269,79 Milton Street,1,Grand Rapids,FL
666,(925) 160-7862,511 Oak Parkway,1,Fort Worth,MA
667,(521) 693-0504,404 Old Drive,1,Greensboro,OH
668,016-931-5692,177 Hague Boulevard,1,San Antonio,MD
669,084-507-0221,655 South New Boulevard,1,St. Paul,WI
670,195-925-1639,60 Oak Parkway,1,Madison,SC
671,(743) 030-0197,198 Old Boulevard,1,Tucson,MI
672,(046) 635-0336,697 Hague Freeway,1,Yonkers,UT
673,(675) 691-9714,985 West New Avenue,1,New York,TX
674,847-246-0530,72 Fabien Road,1,Cleveland,CT
675,(301) 975-5311,961 Green New Boulevard,1,Shreveport,WY
676,(495) 656-6139,97 Nobel Boulevard,1,Louisville,PA
677,702-592-5859,224 Second Boulevard,1,Newark,GA
678,(930) 322-0137,440 East Green Hague Way,1,Charlotte,CA
679,309-065-1551,152 East First Road,1,Baton Rouge,DE
680,(376) 116-0164,614 Rocky Nobel Street,1,Minneapolis,NJ
681,902-344-8597,483 Rocky Second Boulevard,1,St. Paul,CT
682,256-067-5664,58 Nobel Freeway,1,New Orleans,IN
683,(983) 085-3777,77 Fabien Drive,1,Milwaukee,NY
684,(907) 110-5349,87 Cowley Parkway,1,Los Angeles,KS
685,551-236-2370,103 North Oak Way,1,Shreveport,TX
686,295-593-9229,86 East New St.,1,Oklahoma,NM
687,(291) 985-5747,87 Oak Freeway,1,Louisville,AK
688,,179 Green Second Freeway,1,Raleigh,OR
689,(846) 283-8130,64 New Freeway,1,New York,AR
690,(586) 217-1511,353 Nobel Blvd.,1,Lubbock,PA
691,377-745-6272,95 Nobel Blvd.,1,Houston,NJ
692,(107) 532-0259,313 White Oak Way,0,Nashville,LA
693,(309) 192-3528,12 South Green Hague Street,0,Memphis,MT
694,245-000-8252,321 Rocky Hague Way,0,Newark,GA
695,(652) 391-2611,68 White First Freeway,0,Wichita,PA
696,(715) 805-6690,54 White New Way,0,Mobile,NC
697,265-763-3545,280 White Fabien Way,0,Las Vegas,ME
698,(288) 793-6840,60 White Clarendon Street,0,Austin,TX
699,(868) 483-0246,76 East Green Clarendon Parkway,0,Omaha,AZ
700,802-094-7035,945 Fabien Freeway,0,Dallas,OK
701,964-528-6212,401 West New Road,0,Virginia Beach,MA
702,(864) 147-6201,90 White Milton Street,0,Minneapolis,NV
703,879-986-7705,41 Milton Street,0,Toledo,SC
704,(301) 689-6344,176 Old Boulevard,0,Louisville,ID
705,026-578-2223,73 Cowley Avenue,0,Birmingham,TX
706,869-352-0158,15 White Clarendon Way,0,Richmond,PA
707,(054) 033-0692,100 South Second Parkway,0,Fort Wayne,AZ
708,(795) 853-4902,54 South Green Clarendon Drive,0,Anchorage,FL
709,(149) 618-8736,58 Green Second Freeway,0,Yonkers,MA
710,(525) 189-5295,726 East Green Oak Boulevard,0,San Antonio,MS
711,(154) 293-7262,770 Rocky Oak Drive,0,San Jose,ME
712,189-504-3911,710 Rocky Oak Road,0,Oklahoma,AK
713,867-775-2631,660 White Clarendon Freeway,0,San Jose,AL
714,435-390-2792,640 Cowley St.,0,Louisville,PA
715,155-447-4457,36 Milton Blvd.,0,Tucson,NJ
716,(528) 157-4386,410 Oak Drive,0,Jackson,MD
717,401-151-0374,39 North New Avenue,0,Fort Worth,UT
718,(903) 422-8501,258 White Milton St.,0,Jackson,AZ
719,(122) 566-2958,81 West Hague Drive,0,Corpus Christi,IN
720,257-330-9216,47 Old Freeway,0,Aurora,NY
721,164-286-1995,233 Green Fabien Street,0,Indianapolis,MS
722,830-547-7389,61 Nobel Boulevard,0,Oakland,NH
723,(296) 722-5568,94 Hague Blvd.,0,Buffalo,IA
724,(488) 745-2605,835 Milton Road,0,Norfolk,NY
725,802-684-3983,784 New Way,0,Grand Rapids,FL
726,(759) 229-5017,586 Clarendon Boulevard,0,Cincinnati,CO
727,(708) 636-2223,76 Green Milton Road,0,San Diego,IA
728,(489) 128-6323,945 Hague Parkway,0,Louisville,AK
729,511-584-1679,624 Nobel Freeway,0,Newark,DE
730,274-265-1869,112 First Avenue,0,Yonkers,LA
731,349-378-0481,46 Milton Street,0,Boston,CO
732,736-754-9413,374 East Rocky Hague Way,0,Corpus Christi,LA
733,(032) 149-6467,225 Rocky Nobel Way,0,Dayton,IL
734,(600) 839-2422,465 Clarendon Boulevard,0,Colorado,MD
735,541-300-1203,38 West Green Second Avenue,0,Milwaukee,MT
736,(625) 033-4040,758 White Nobel Blvd.,0,Sacramento,CA
737,173-851-2534,373 North Rocky Fabien Way,0,Omaha,MD
738,(880) 081-9212,92 West White New Road,0,Philadelphia,MO
739,(005) 075-9156,555 South White First Way,0,Kansas,MI
740,996-230-0000,97 Second Parkway,0,Madison,SD
741,(807) 451-0034,486 First Avenue,0,Honolulu,WI
742,(988) 960-6406,758 First St.,0,Philadelphia,FL
743,053-545-3923,285 South Clarendon Boulevard,0,Raleigh,NJ
744,(953) 056-1604,88 South Fabien Drive,0,Birmingham,VT
745,(336) 961-7388,268 First Way,0,Omaha,MS
746,(491) 331-1260,603 North Green Oak Freeway,0,Phoenix,WI
747,469-365-2436,24 Old Blvd.,0,Tucson,MI
748,898-567-4417,384 Fabien St.,0,Anaheim,HI
749,231-730-3853,85 White Second Way,0,Mobile,OH
750,662-763-3442,73 First Way,0,Lubbock,IL
751,(158) 938-2381,26 Green First Boulevard,0,Atlanta,AR
752,(606) 124-2490,143 Green Nobel Freeway,0,Columbus,IL
753,075-278-9941,565 Rocky New St.,0,Colorado,DE
754,388-255-7208,201 White Milton Boulevard,0,Baltimore,VT
755,345-378-8286,446 Second Drive,0,Glendale,WI
756,077-564-6383,64 East Cowley Parkway,0,Fort Wayne,AZ
757,025-844-3588,498 East Milton Drive,0,Omaha,MS
758,957-662-5121,735 Oak Way,0,Miami,WA
759,820-205-7474,959 Second Street,0,Oakland,NH
760,(411) 753-6278,818 Clarendon Parkway,0,Omaha,MS
761,(631) 547-5868,65 South Hague Boulevard,0,Birmingham,VT
762,(727) 275-0543,33 White Fabien Street,0,Tucson,NJ
763,672-549-3089,193 First Freeway,0,Akron,OH
764,530-203-5467,35 Green Old St.,0,Las Vegas,ME
765,(362) 804-5238,136 Old Blvd.,0,Arlington,KS
766,(963) 928-4605,13 Cowley Parkway,0,Mobile,RI
767,(176) 960-7607,31 Green First Parkway,0,Jacksonville,TN
768,775-604-1382,170 White Oak Freeway,0,New Orleans,LA
769,(161) 727-6497,81 North White Oak Avenue,0,Tampa,MS
770,(872) 419-0682,632 White Milton St.,0,Jacksonville,MI
771,620-234-5795,856 Rocky Milton Road,0,Indianapolis,IN
772,104-619-1673,77 Rocky First Drive,0,Montgomery,SC
773,644-431-4259,95 First Drive,0,Omaha,MD
774,152-195-1967,838 Second Blvd.,0,Oklahoma,AK
775,(139) 704-2515,624 Milton Parkway,0,Seattle,HI
776,523-312-4917,12 White Oak Drive,0,San Francisco,MS
777,248-082-3627,995 South Hague Boulevard,0,St. Louis,RI
778,(267) 164-5931,476 Second Boulevard,0,Fort Worth,MA
779,997-089-6459,40 East White Oak Blvd.,0,Newark,DE
780,974-823-1562,32 North Hague Drive,0,St. Petersburg,OK
781,(993) 871-8274,85 Rocky Milton Road,0,Garland,IA
782,(020) 099-4827,123 Clarendon Street,0,Wichita,AK
783,(723) 768-1619,836 Clarendon Avenue,0,Akron,OH
784,(927) 186-4522,34 North Oak St.,0,Aurora,NY
785,(446) 685-8064,65 Green First Street,0,Birmingham,TX
786,040-538-0752,113 Cowley Drive,0,Tacoma,OK
787,784-273-0925,850 Old Blvd.,0,Tampa,NE
788,(377) 148-5170,822 White Cowley Blvd.,0,Columbus,ID
789,(485) 267-5229,67 New Street,0,Seattle,HI
790,408-149-0901,66 South Hague Way,0,Jacksonville,NH
791,337-412-3825,28 Fabien Freeway,0,Des Moines,OH
792,254-545-2688,78 New Avenue,0,Seattle,ND
793,(763) 606-4948,92 Cowley Drive,0,San Francisco,MS
794,(607) 860-5865,68 Green First Freeway,0,Minneapolis,OR
795,(104) 814-4185,489 Nobel St.,0,Cleveland,IL
796,057-338-9196,58 White Old Blvd.,0,Charlotte,CA
797,(154) 870-5899,380 Second Boulevard,0,Anaheim,KS
798,558-903-0928,44 Milton Drive,0,Pittsburgh,CO
799,(026) 106-6778,56 Rocky Nobel St.,0,Cincinnati,WV
800,997-596-3670,87 Clarendon Blvd.,0,St. Paul,WI
801,558-713-1877,408 Nobel Drive,0,El Paso,FL
802,(805) 070-2821,97 Nobel Parkway,0,Riverside,RI
803,(804) 054-8718,252 Rocky Old Boulevard,0,Albuquerque,OR
804,(786) 705-1692,35 East Green Second Way,0,Boston,NV
805,(307) 874-3666,41 Green Second Avenue,0,Little Rock,VA
806,(278) 432-1432,596 Milton Way,0,Lubbock,PA
807,(971) 498-0505,403 Old Avenue,0,Fresno,UT
808,(401) 880-7887,951 East Rocky Clarendon Road,0,Mobile,RI
809,(922) 692-4712,13 Hague Way,0,Richmond,ND
810,631-068-2241,11 North Rocky Old Way,0,Las Vegas,NH
811,(030) 888-3483,72 West Green Old Blvd.,0,Aurora,WA
812,(539) 057-6065,77 Old Avenue,0,Tucson,NJ
813,(091) 465-7430,611 Green Clarendon Avenue,0,Baton Rouge,DE
814,979-196-3819,761 White Fabien Boulevard,0,Yonkers,LA
815,690-708-3387,54 Fabien St.,0,Las Vegas,ME
816,(641) 895-1931,91 Rocky Clarendon Road,0,Lincoln,AR
817,(524) 904-4026,707 Cowley Boulevard,0,Oklahoma,ND
818,359-612-6007,283 Rocky Milton Blvd.,0,Louisville,PA
819,(800) 868-8382,97 Green Fabien St.,0,Madison,IA
820,917-905-0949,149 First Parkway,0,Raleigh,NJ
821,534-079-0672,469 West Hague Drive,0,Minneapolis,NJ
822,765-149-3879,22 Oak Road,0,Colorado,MD
823,,69 New Drive,0,Fort Wayne,AZ
824,(001) 724-8622,73 White Oak Way,0,Newark,DE
825,014-428-3174,12 White Fabien Drive,0,Charlotte,CA
826,063-553-5853,34 North Nobel Road,0,Charlotte,CA
827,781-634-4048,64 Milton Drive,0,San Antonio,MS
828,701-444-3272,14 Cowley Blvd.,0,Jersey,NC
829,(652) 466-0883,926 Fabien Way,0,Omaha,AZ
830,125-062-7194,762 White First Street,0,Anchorage,MT
831,581-135-8349,32 Green Old Boulevard,0,Houston,NJ
832,(025) 760-6026,352 North Fabien Way,0,Long Beach,TN
833,801-809-7422,54 Green First Road,0,Birmingham,TX
834,(311) 595-6761,735 Green Fabien Road,0,Kansas,MI
835,200-450-2400,353 Rocky Nobel Avenue,0,Nashville,IN
836,(408) 377-8108,801 East Second Street,0,Lincoln,TX
837,433-559-3777,36 Milton Blvd.,0,Garland,SD
838,(979) 669-9178,46 Rocky Nobel Parkway,0,Austin,TX
839,183-963-0358,270 East Cowley Parkway,0,Rochester,OR
840,717-315-2529,771 North White Clarendon Avenue,0,Corpus Christi,LA
841,(429) 814-3186,31 East Rocky Nobel Road,0,Houston,OR
842,(660) 617-3245,376 East Clarendon Blvd.,0,Santa Ana,LA
843,(683) 243-3808,629 Green Nobel Parkway,0,Baton Rouge,AZ
844,(757) 945-5431,75 First Freeway,0,Hialeah,KS
845,(872) 947-8848,96 Oak Parkway,0,New York,TX
846,217-850-5767,922 Rocky New Street,0,Little Rock,AR
847,386-270-5788,587 New Avenue,0,Buffalo,AL
848,(682) 773-6436,136 West First Street,0,San Jose,AL
849,245-961-1350,673 Rocky Second Street,0,Lubbock,PA
850,509-081-4507,619 Rocky Hague Drive,0,Riverside,WY
851,227-104-2797,759 Green New Drive,0,Long Beach,MI
852,(695) 977-5457,22 White Cowley Avenue,0,Virginia Beach,CO
853,900-917-6987,47 Green Fabien Road,0,Mesa,ND
854,(829) 849-0370,208 West Cowley Boulevard,0,Montgomery,KY
855,(631) 281-6788,664 Second Freeway,0,Louisville,ID
856,(368) 528-4183,34 White New Freeway,0,San Francisco,NE
857,073-913-7453,498 White New Drive,0,Lubbock,ID
858,(514) 422-5540,264 North Nobel Blvd.,0,Baton Rouge,DE
859,995-261-4998,216 East New Freeway,0,Riverside,NC
860,(837) 827-6793,797 West Green New St.,0,Columbus,ID
861,(283) 303-8606,439 West Clarendon Parkway,0,Toledo,KY
862,(751) 815-8215,88 Hague Road,0,Oklahoma,AK
863,289-456-5043,22 White New Way,0,Baton Rouge,GA
864,401-704-6350,643 West Fabien Way,0,Toledo,SD
865,(917) 465-7129,60 Green Cowley Avenue,0,Atlanta,TX
866,(910) 556-0974,184 Hague Blvd.,0,Colorado,MD
867,(153) 566-2699,19 First Freeway,0,Mobile,OH
868,(309) 032-3054,343 Old Drive,0,Fort Wayne,AZ
869,(170) 448-8843,667 Milton Drive,0,Tulsa,HI
870,(845) 023-0049,27 South First Drive,0,Madison,SD
871,238-343-5950,125 East Rocky Cowley Road,0,Des Moines,OH
872,103-867-4941,25 Rocky Cowley Drive,0,Shreveport,WY
873,,870 Oak Street,0,Colorado,DE
874,705-519-9400,912 Nobel St.,0,Akron,RI
875,(859) 618-6702,17 Green Second Way,0,Glendale,CT
876,895-527-4044,832 South Green Second Way,0,Cleveland,OK
877,(196) 530-0347,619 East Green Cowley Drive,0,Louisville,AK
878,(384) 266-8849,964 Green Fabien St.,0,Indianapolis,NE
879,085-817-0175,718 East Fabien Parkway,0,Santa Ana,UT
880,(826) 081-5116,466 Fabien Way,0,Buffalo,IA
881,(173) 768-8290,611 Milton St.,0,Bakersfield,CA
882,(736) 361-1787,40 Green Nobel Freeway,0,Akron,MO
883,(240) 066-7185,72 Green New Parkway,0,Las Vegas,AL
884,(448) 848-5533,998 Clarendon Blvd.,0,St. Louis,RI
885,667-449-2793,14 North Oak Parkway,0,Glendale,CT
886,(548) 541-8898,13 South Green First Way,0,Columbus,IL
887,858-706-4816,94 Clarendon Road,0,Corpus Christi,NE
888,210-337-7675,102 North White First Way,0,Bakersfield,CA
889,(880) 895-9260,126 Green Oak Street,0,Arlington,WA
890,095-615-7441,111 South Rocky Cowley Boulevard,0,Madison,SD
891,(819) 783-7588,70 Oak Street,0,Austin,VT
892,188-529-0882,69 Rocky Cowley Drive,0,St. Louis,NC
893,(151) 668-3420,719 New Road,0,Riverside,WY
894,(201) 695-6169,10 Hague Parkway,0,Oklahoma,NM
895,103-524-4128,52 Green First Blvd.,0,Phoenix,WI
896,530-145-7163,45 Green Old Freeway,0,El Paso,MO
897,990-775-0859,80 White Second St.,0,San Francisco,NE
898,(594) 213-1184,12 Green Oak Way,0,Boston,CO
899,218-622-0619,738 Green First Avenue,0,Columbus,IL
900,329-344-6904,383 Cowley Road,0,Miami,NY
901,897-240-9328,76 White Nobel Drive,0,Greensboro,OH
902,985-319-1510,71 South Rocky Milton Drive,0,Jersey,NC
903,590-366-8863,709 White Hague Boulevard,0,Kansas,MI
904,(260) 648-3716,185 Green Nobel Blvd.,0,Seattle,ND
905,820-853-2952,65 White Fabien Street,0,Toledo,KY
906,,58 Clarendon Street,0,Garland,IA
907,(976) 955-5741,815 East Rocky Fabien Drive,0,Arlington,WA
908,631-963-7456,238 Green New Freeway,0,Minneapolis,OR
909,(309) 009-1160,46 South Green New Boulevard,0,Birmingham,TX
910,(637) 873-8727,24 Fabien Boulevard,0,Jackson,MD
911,(913) 420-8015,569 North Fabien Street,0,Corpus Christi,LA
912,290-299-7983,97 Rocky Fabien Freeway,0,Indianapolis,NE
913,211-666-8351,457 West Rocky Milton Boulevard,0,Miami,WA
914,(475) 037-7345,403 Green First Road,0,Glendale,CT
915,(444) 363-9790,568 Clarendon Way,0,Omaha,MD
916,(162) 689-4526,856 Hague Road,0,Santa Ana,UT
917,378-225-9376,751 Milton Road,0,Honolulu,GA
918,874-946-1384,68 Cowley Boulevard,0,Madison,SD
919,(999) 993-9781,242 South Oak Way,0,Madison,SC
920,782-122-0262,689 White Oak Boulevard,0,Sacramento,WA
921,643-714-4067,97 Milton Road,0,Indianapolis,MS
922,(861) 793-1732,66 White Clarendon Way,0,Aurora,NY
923,(871) 305-4035,707 North White New St.,0,Des Moines,RI
924,(424) 758-1756,144 White Old Blvd.,0,Santa Ana,LA
925,364-011-9944,329 Green Oak Boulevard,0,Boston,CO
926,(115) 767-2045,116 Nobel Way,0,Mesa,AK
927,631-001-6841,469 Hague Street,0,Oakland,ME
928,348-443-1292,26 West Rocky Oak Parkway,0,Spokane,NJ
929,339-571-8830,27 Nobel Drive,0,Yonkers,LA
930,(467) 005-1101,36 Old Street,0,Nashville,LA
931,(186) 465-8058,274 Green Old St.,0,Detroit,MN
932,609-194-5426,910 East Fabien Avenue,0,Fremont,PA
933,284-653-2566,25 Old Boulevard,0,Baltimore,NC
934,879-482-1600,23 Rocky Second Street,0,Miami,WA
935,(315) 700-5110,420 North Hague Freeway,0,Seattle,NM
936,(838) 126-5921,12 Cowley Blvd.,0,Baltimore,NC
937,(684) 366-0897,69 East White First Drive,0,Lubbock,ID
938,(181) 353-7599,922 White Nobel Avenue,0,Austin,TX
939,(665) 793-6567,54 Fabien Drive,0,Raleigh,TN
940,(394) 986-7876,181 Cowley Boulevard,0,Virginia Beach,CO
941,086-613-3302,102 Green Clarendon St.,0,Riverside,RI
942,(156) 554-0592,26 New Drive,0,Norfolk,MT
943,868-256-8218,19 Hague Way,0,St. Louis,RI
944,(603) 325-1001,17 Fabien Blvd.,0,New York,TX
945,(815) 335-5898,103 White Hague Freeway,0,Grand Rapids,MO
946,744-150-1185,938 South Fabien St.,0,Rochester,NV
947,(480) 239-6740,770 West White Milton Blvd.,0,Dayton,OK
948,(557) 524-5308,86 Second Blvd.,0,Nashville,IN
949,(035) 091-8763,250 Rocky Nobel Parkway,0,Garland,SD
950,(772) 004-3391,640 Rocky Old Blvd.,0,St. Louis,WY
951,(271) 116-2604,49 East Green Cowley Way,0,Madison,SD
952,698-840-0971,792 Oak Avenue,0,San Francisco,MD
953,(918) 744-6222,251 Cowley Parkway,0,Tulsa,HI
954,(460) 159-5836,867 Fabien Freeway,0,Norfolk,MT
955,616-723-7173,59 Green Milton Avenue,0,San Francisco,MS
956,(358) 063-9198,945 East Fabien Parkway,0,Dallas,WI
957,505-815-5341,822 Fabien Parkway,0,San Jose,IA
958,(889) 030-9669,187 Old Road,0,Arlington,WA
959,159-675-6652,987 Green Old St.,0,Newark,GA
960,(951) 606-2171,327 Rocky First Blvd.,0,Fort Worth,UT
961,184-143-4542,714 Clarendon Drive,0,Norfolk,MT
962,222-329-5739,43 Fabien Blvd.,0,Glendale,WI
963,370-205-1716,15 White Fabien Avenue,0,Denver,NV
964,(154) 248-9982,168 North White Second Road,0,Cincinnati,WV
965,374-826-5907,774 East White Second Road,0,Dayton,IL
966,046-802-2060,146 Green First Street,0,Tulsa,NM
967,(706) 484-3972,604 East New St.,0,Oakland,ME
968,(042) 748-3135,837 East First Road,0,Richmond,ND
969,(435) 928-3028,38 Rocky Hague Way,0,Rochester,NV
970,169-779-7037,769 West Green First Blvd.,0,Akron,MO
971,746-319-4929,912 Nobel Avenue,0,Hialeah,NM
972,023-514-1776,89 Hague Drive,0,Montgomery,VA
973,(644) 757-4347,45 Rocky First Road,0,Denver,WV
974,104-138-7323,689 Milton Blvd.,0,Baltimore,NC
975,291-743-4920,614 West Old St.,0,Santa Ana,UT
976,804-525-2051,645 Second Freeway,0,Pittsburgh,CO
977,619-775-1702,44 Rocky Hague Road,0,Toledo,SC
978,544-457-8485,244 Milton Road,0,New Orleans,IN
979,(611) 623-0830,23 Hague Avenue,0,Nashville,LA
980,876-436-5461,10 South Rocky Fabien Way,0,Fort Worth,MA
981,(245) 248-6455,96 Clarendon Way,0,Spokane,TN
982,457-948-7511,92 Hague Blvd.,0,Grand Rapids,MO
983,569-941-3181,714 Green Nobel Street,0,Lincoln,MN
984,(027) 433-6228,85 Green First Boulevard,0,Jackson,AZ
985,(600) 905-5054,32 Green First Drive,0,Miami,NY
986,(265) 000-7161,703 Rocky Fabien Road,0,Dallas,OK
987,(062) 308-1622,11 Rocky Milton Way,0,Boston,CO
988,(663) 347-6479,770 Fabien Boulevard,0,San Francisco,MD
989,(284) 698-8400,36 East Oak Parkway,0,Mesa,AK
990,(585) 788-7579,41 Rocky First Avenue,0,Akron,OH
991,973-071-2463,37 Rocky Cowley Avenue,0,Jersey,VT
992,(899) 485-9921,568 South Nobel St.,0,Garland,SD
993,(180) 188-1793,16 White Old Freeway,0,Virginia Beach,CO
994,601-602-5459,721 Old Boulevard,0,St. Paul,GA
995,(831) 501-4013,35 Oak St.,0,Dallas,OK
996,823-121-8741,84 Milton Avenue,0,Portland,NE
997,250-361-5077,37 Green Fabien Boulevard,0,Houston,OR
998,(603) 040-1482,174 Green First Drive,0,Grand Rapids,FL
999,434-180-9993,30 Old St.,0,Shreveport,TX
1000,633-082-4204,60 New Road,0,Anchorage,FL
